KONDOR-FKA NO. 2        
1 62138U 24223A   26068.49158135  .00005629  00000+0  26619-3 0  9999
2 62138  97.4353 273.3867 0001838  85.6363 274.5082 15.19776940 70565
TRANSPORTER-15 OBJECT CD
1 66741U 25276CD  26065.85989400  .00017530  00000+0  84273-3 0  9990
2 66741  97.4316 141.2013 0005308   3.5398 356.5873 15.18860021 12183
